Type,Number,Company,Location,City,Province,Country,Latitude,Longitude
2,1,Baishi,东直门街道香河园1号院万国城11号楼信德京汇中心丰巢百世快递,Beijing,Beijing,China,39.954731,116.445779
2,2,Baishi,北京市朝阳区南四环东路辅路,Beijing,Beijing,China,39.842519,116.475255
2,3,Baishi,角门东里54号楼,Beijing,Beijing,China,39.852564,116.388531
2,4,Baishi,回龙观街道龙博苑二区二号楼三单元底商,Beijing,Beijing,China,40.075188,116.34957
2,5,Baishi,花乡乡新发地汉龙货运中心南C区84号,Beijing,Beijing,China,39.816604,116.354701
2,6,Baishi,北京市丰台区卢沟桥小王饭馆,Beijing,Beijing,China,39.88113,116.228151
2,7,Baishi,北京市房山区S318(房易路),Beijing,Beijing,China,39.576508,115.717659
2,8,Baishi,任李路93号附近,Beijing,Beijing,China,40.046965,116.717131
2,9,Baishi,北京市昌平区鼓楼西街9-27,Beijing,Beijing,China,40.230171,116.234393
2,10,Baishi,七大路与南孙路交叉口北150米,Beijing,Beijing,China,40.093511,116.927721
2,11,Baishi,石槽南路219号,Beijing,Beijing,China,39.885644,116.593228
2,12,Baishi,北京市东城区仓南胡同2-2号,Beijing,Beijing,China,39.933209,116.43384
2,13,Baishi,北京市平谷区S314(平蓟路),Beijing,Beijing,China,40.177745,117.231016
2,14,Baishi,北京市昌平区满白路南,Beijing,Beijing,China,40.18964,116.254253
2,15,Baishi,北京市海淀区上庄家园西区9号楼,Beijing,Beijing,China,40.104629,116.225835
2,16,Baishi,南法信华英园小区2号楼3门102室(菜鸟驿站),Beijing,Beijing,China,40.136411,116.626976
2,17,Baishi,北京市怀柔区八一路(春华秋实幼儿园东北侧约50米),Beijing,Beijing,China,40.364723,116.670518
2,18,Baishi,北京市朝阳区驼房营南路2号附近,Beijing,Beijing,China,39.967403,116.511452
2,19,Baishi,北京市朝阳区,Beijing,Beijing,China,39.985333,116.641668
2,20,Baishi,北京市顺义区双裕小区8号楼3单元,Beijing,Beijing,China,40.113126,116.560767
2,21,Baishi,北京市顺义区石门苑9号楼,Beijing,Beijing,China,40.137564,116.6408
2,22,Baishi,北京市昌平区龙泽园街道昌平区国风美唐综合楼6号楼百世汇通,Beijing,Beijing,China,40.079736,116.367034
2,23,Baishi,北京市西城区新街口街道新街口西里6号楼底商,Beijing,Beijing,China,39.950125,116.37732
2,24,Baishi,北京市昌平区S213(安四路),Beijing,Beijing,China,40.230233,116.421128
2,25,Baishi,十八里店村1807号库房,Beijing,Beijing,China,39.84498,116.494432
2,26,Baishi,北京市朝阳区东苇路,Beijing,Beijing,China,39.990156,116.578167
2,27,Baishi,北京市顺义区建新西胡同5号,Beijing,Beijing,China,40.176604,116.505239
2,28,Baishi,沙窝北路460号,Beijing,Beijing,China,39.982643,116.639181
2,29,Baishi,小营北路紫薇天悦21号楼,Beijing,Beijing,China,40.00492,116.435722
2,30,Baishi,朝阳区建国路78号熏皮厂村,Beijing,Beijing,China,39.912552,116.491816
2,31,Baishi,北京市昌平区太海路,Beijing,Beijing,China,40.088531,116.447572
2,32,Baishi,北京市海淀区西北旺镇亮甲店村北甲一号6号院,Beijing,Beijing,China,40.060261,116.243518
2,33,Baishi,北京市昌平区南口镇交通街64号,Beijing,Beijing,China,40.245549,116.139539
2,34,Baishi,马泉营村路附近,Beijing,Beijing,China,40.044942,116.517657
2,35,Baishi,新村街道京开路汉龙北二门(海子公园旁)附近,Beijing,Beijing,China,39.819434,116.3571
2,1,Cainiao,马昌营镇华夏大学对面,Beijing,Beijing,China,40.143401,117.029424
2,2,Cainiao,沙河镇兆丰家园6号楼6-7号底商,Beijing,Beijing,China,40.156397,116.28761
2,3,Cainiao,清河街道小营西路33号金山软件大厦1F员工服务中心后区,Beijing,Beijing,China,40.040778,116.322982
2,4,Cainiao,北京市通州区玉桥街道临河里方恒东景小区108号楼1单元103,Beijing,Beijing,China,39.878802,116.696854
2,5,Cainiao,黄村镇三合北巷7号院3号楼2单元1701,Beijing,Beijing,China,39.742225,116.326133
2,6,Cainiao,马家堡街道马家堡西里54号楼6门101室小卖部,Beijing,Beijing,China,39.857209,116.381559
2,7,Cainiao,檀营镇新北路檀营小区5号楼菜鸟驿站,Beijing,Beijing,China,40.395628,116.867395
2,8,Cainiao,北京市密云区果园街道季庄小区46号楼菜鸟驿站,Beijing,Beijing,China,40.384148,116.836464
2,9,Cainiao,北务镇郭家务村国林超市,Beijing,Beijing,China,40.071402,116.871194
2,10,Cainiao,义宾北区12号楼,Beijing,Beijing,China,40.140218,116.65495
2,11,Cainiao,北七家镇宏福苑北区3B楼三单元106,Beijing,Beijing,China,40.122767,116.373282
2,12,Cainiao,霍营街道龙锦苑东五区17号楼7单元602北门菜鸟驿站,Beijing,Beijing,China,40.092935,116.381618
2,13,Cainiao,东环路燕平家园34号楼,Beijing,Beijing,China,40.229388,116.246651
2,14,Cainiao,北京市昌平区城北街道三街财神庙胡同安福苑30号楼,Beijing,Beijing,China,40.232104,116.241203
2,15,Cainiao,昌盛路京科苑小区62号楼菜鸟驿站,Beijing,Beijing,China,40.216036,116.255696
2,16,Cainiao,城北街道亢山佳园小区5号楼菜鸟驿站,Beijing,Beijing,China,40.226645,116.261829
2,17,Cainiao,北京市昌平区马池口镇百泉庄百泉花园13号楼楼下菜鸟驿站,Beijing,Beijing,China,40.211614,116.218943
2,18,Cainiao,西环里47号楼菜鸟驿站,Beijing,Beijing,China,40.23628,116.230445
2,19,Cainiao,回龙观回龙观镇龙禧二街龙禧苑二区1号楼8号底商中商惠民君悦超市菜鸟驿站,Beijing,Beijing,China,40.091824,116.349302
2,20,Cainiao,北京市昌平区龙泽园街道回龙观天露园一区4号楼,Beijing,Beijing,China,40.091999,116.322921
2,21,Cainiao,北京市海淀区上庄镇上庄路与沙阳路馨瑞嘉园一号楼,Beijing,Beijing,China,40.131881,116.221977
2,22,Cainiao,南口镇兴隆街丰景高苑1号楼,Beijing,Beijing,China,40.24351,116.137794
2,23,Cainiao,北京市顺义区李桥镇馨港庄园二区20号楼菜鸟驿站,Beijing,Beijing,China,40.038714,116.674644
2,24,Cainiao,北京市通州区永顺镇北马庄翠福园小区19号楼,Beijing,Beijing,China,39.949739,116.660046
2,25,Cainiao,中仓街道中仓街道bobo自由城65号楼或者74号楼菜鸟驿站,Beijing,Beijing,China,39.914517,116.698707
2,26,Cainiao,北京市朝阳区常营镇五里桥二街1号院北京像素北区11号楼,Beijing,Beijing,China,39.932463,116.620999
2,27,Cainiao,北京市朝阳区立水桥立清路明天第一城7号院7号楼,Beijing,Beijing,China,40.052089,116.414599
2,28,Cainiao,东升镇观澳园1号楼菜鸟驿站,Beijing,Beijing,China,40.039857,116.377542
2,29,Cainiao,来广营镇来北家园4号楼,Beijing,Beijing,China,40.033626,116.4423
2,30,Cainiao,北京市朝阳区林萃西里43号楼,Beijing,Beijing,China,40.022389,116.375545
2,31,Cainiao,北京市朝阳区阜通东大街辅路,Beijing,Beijing,China,39.985971,116.475624
2,32,Cainiao,北京市朝阳区八里庄街道十里堡东里127号楼,Beijing,Beijing,China,39.925457,116.509585
2,33,Cainiao,朝阳北路八里庄南里小区8号楼佳和超市,Beijing,Beijing,China,39.928564,116.504637
2,34,Cainiao,北京市朝阳区和平街街道和平西街23号院2号楼,Beijing,Beijing,China,39.969123,116.423246
2,35,Cainiao,北京市西城区,Beijing,Beijing,China,39.966355,116.393167
2,36,Cainiao,北京市通州区九棵树东路115号,Beijing,Beijing,China,39.887907,116.676312
2,37,Cainiao,北京市朝阳区劲松街道劲松一区110号楼,Beijing,Beijing,China,39.89103,116.467404
2,38,Cainiao,北京市大兴区亦庄镇三羊里5号楼,Beijing,Beijing,China,39.82649,116.521161
2,39,Cainiao,台湖镇东居时代5号楼门口菜鸟驿站,Beijing,Beijing,China,39.831349,116.541732
2,40,Cainiao,白纸坊街道盆儿胡同双槐里小区十二号楼12-4华益生便民超市,Beijing,Beijing,China,39.88765,116.377147
2,41,Cainiao,北京市西城区椿树街道椿树园小区17号楼,Beijing,Beijing,China,39.899099,116.384647
2,42,Cainiao,大红门街道西罗园南里京品小区-47号楼菜鸟驿站,Beijing,Beijing,China,39.857889,116.399901
2,43,Cainiao,北京市丰台区和义街道南苑北里1区11号楼,Beijing,Beijing,China,39.816005,116.4045
2,44,Cainiao,灵秀山庄17号楼4单元201号菜鸟驿站,Beijing,Beijing,China,39.804392,116.467363
2,45,Cainiao,北京市大兴区瀛海镇南海家园二里9号楼,Beijing,Beijing,China,39.769259,116.495824
2,46,Cainiao,北京市大兴区旧宫镇成和园西区22号楼,Beijing,Beijing,China,39.812632,116.451589
2,47,Cainiao,北京市海淀区清河清景园4号楼,Beijing,Beijing,China,40.036566,116.358689
2,48,Cainiao,清缘里中区2号楼清源阳光超市,Beijing,Beijing,China,40.035894,116.362741
2,49,Cainiao,北京市昌平区西三旗龙乡小区中区14号楼,Beijing,Beijing,China,40.069076,116.343359
2,50,Cainiao,清河嘉园东区甲1号楼,Beijing,Beijing,China,40.036005,116.353072
2,51,Cainiao,西三旗街道西三旗东路3号沁春家园14号楼9单元602菜鸟驿站,Beijing,Beijing,China,40.063174,116.343085
2,52,Cainiao,北京市海淀区厢黄旗东路,Beijing,Beijing,China,40.03611,116.300974
2,53,Cainiao,学院路街道092t北京海淀区三环到四环之间展春园小区7号楼菜鸟驿站,Beijing,Beijing,China,39.995219,116.349083
2,54,Cainiao,北京市海淀区学院路街道城华园小区3号楼,Beijing,Beijing,China,40.016932,116.357419
2,55,Cainiao,知春路碧兴园一号楼下菜鸟驿站,Beijing,Beijing,China,39.980214,116.350268
2,56,Cainiao,三环到四环之间大钟寺东路168号太阳园太阳园3号楼菜鸟驿站,Beijing,Beijing,China,39.977186,116.345695
2,57,Cainiao,曙光街道曙光花园望河园4号楼菜鸟驿站,Beijing,Beijing,China,39.95115,116.296199
2,58,Cainiao,万寿路街道翠微东里10号楼底商龙岳达图片社,Beijing,Beijing,China,39.921525,116.313188
2,59,Cainiao,市万寿路街道静源居1号楼菜鸟驿站,Beijing,Beijing,China,39.917559,116.306015
2,60,Cainiao,万寿路街道复兴路46号院3号楼,Beijing,Beijing,China,39.911787,116.260196
2,61,Cainiao,北京市石景山区五里坨街道隆恩寺路19号院西山峻景小区4号楼,Beijing,Beijing,China,39.967964,116.130114
2,62,Cainiao,北京市石景山区金顶街街道金顶街四区10号楼,Beijing,Beijing,China,39.932815,116.178475
2,63,Cainiao,北京市丰台区华源四里8号楼,Beijing,Beijing,China,39.886013,116.326357
2,64,Cainiao,北京市丰台区前泥洼三区8号楼,Beijing,Beijing,China,39.860364,116.304856
2,65,Cainiao,望园东里24号楼楼下,Beijing,Beijing,China,39.87379,116.294417
2,66,Cainiao,丰葆路110号富锦嘉园一区12号楼下,Beijing,Beijing,China,39.823911,116.292578
2,67,Cainiao,北京市丰台区新村街道造甲街宝丰大厦菜鸟驿站,Beijing,Beijing,China,39.8483,116.303896
2,68,Cainiao,程庄北里5号楼,Beijing,Beijing,China,39.860927,116.272514
2,69,Cainiao,滨河西里北区9号楼,Beijing,Beijing,China,39.760292,116.345183
2,70,Cainiao,西红门镇广茂大街5号泰中花园4号楼菜鸟驿站,Beijing,Beijing,China,39.768209,116.353688
2,71,Cainiao,北京市大兴区盛芳茗苑18号楼,Beijing,Beijing,China,39.756587,116.344364
2,72,Cainiao,北京市大兴区黄村镇兴政西里20号楼,Beijing,Beijing,China,39.734488,116.342334
2,73,Cainiao,北京市大兴区首邑溪谷7号楼菜鸟驿站,Beijing,Beijing,China,39.76771,116.31792
2,74,Cainiao,北京市房山区拱辰街道天星街1号院6号楼菜鸟驿站,Beijing,Beijing,China,39.76141,116.16826
2,75,Cainiao,黄辛庄南里3号楼,Beijing,Beijing,China,39.759957,116.153958
2,76,Cainiao,拱辰街道拱辰大街楸树家园1号楼,Beijing,Beijing,China,39.740226,116.146177
2,77,Cainiao,北京市房山区燕化星城健德一里5号楼,Beijing,Beijing,China,39.719425,116.075271
2,78,Cainiao,北京市房山区大窦路腾龙家园二区1号楼101号,Beijing,Beijing,China,39.695422,116.071623
2,79,Cainiao,城关街道2号福胜家园8号楼菜鸟驿站,Beijing,Beijing,China,39.709322,115.994031
2,80,Cainiao,北京市密云区城后街25号,Beijing,Beijing,China,40.389797,116.847486
2,81,Cainiao,北京市密云区,Beijing,Beijing,China,40.378946,116.841232
2,82,Cainiao,学府花园22号楼菜鸟驿站,Beijing,Beijing,China,40.377414,116.830791
2,83,Cainiao,十里堡镇海怡庄园6号楼菜鸟驿站,Beijing,Beijing,China,40.370653,116.822278
2,84,Cainiao,中国果园街道学府花园9号楼菜鸟驿站,Beijing,Beijing,China,40.379925,116.828864
2,85,Cainiao,牛栏山前晏子中超顺发超市,Beijing,Beijing,China,40.206525,116.64126
2,86,Cainiao,胜利街道站前北街11号义宾南区7号楼前菜鸟驿站,Beijing,Beijing,China,40.137707,116.655527
2,87,Cainiao,北京市朝阳区滨河路(黄港国际创意园北侧约200米),Beijing,Beijing,China,40.085435,116.478526
2,88,Cainiao,东小口镇回南路8号院回南家园4号楼3单元-小区大门菜鸟驿站,Beijing,Beijing,China,40.092231,116.395448
2,89,Cainiao,霍营街道霍营华龙苑中里16号楼菜鸟驿站,Beijing,Beijing,China,40.085205,116.376795
2,90,Cainiao,城北街道东关北里2号楼菜鸟驿站,Beijing,Beijing,China,40.234184,116.247708
2,91,Cainiao,北京市昌平区城北街道建明里32号楼,Beijing,Beijing,China,40.226636,116.230677
2,92,Cainiao,北京市昌平区城角西路御路园21号楼,Beijing,Beijing,China,40.221594,116.229157
2,93,Cainiao,北京市昌平区北环里小区13号楼菜鸟驿站,Beijing,Beijing,China,40.232808,116.235144
2,94,Cainiao,邓庄村13号小金电脑手机维修,Beijing,Beijing,China,40.232328,116.205762
2,95,Cainiao,霍营龙跃苑四区26号楼菜鸟驿站,Beijing,Beijing,China,40.078433,116.355814
2,96,Cainiao,回龙观龙腾苑四区35号楼菜鸟驿站,Beijing,Beijing,China,40.078167,116.351229
2,97,Cainiao,北京市昌平区回龙观街道回龙观风雅园三区1号楼,Beijing,Beijing,China,40.086582,116.331933
2,98,Cainiao,李桥镇樱花园三区31号楼1门402或三区菜鸟驿站,Beijing,Beijing,China,40.035627,116.630984
2,99,Cainiao,北京市顺义区天竺镇蓝海苑5号楼,Beijing,Beijing,China,40.045761,116.603378
2,100,Cainiao,北京市通州区通瑞嘉苑21号楼,Beijing,Beijing,China,39.940178,116.694072
2,101,Cainiao,北京市通州区永顺镇永顺路44号财富东方4号楼,Beijing,Beijing,China,39.923689,116.659154
2,102,Cainiao,三间房镇金隅可乐a座菜鸟驿站,Beijing,Beijing,China,39.909218,116.582936
2,103,Cainiao,广顺北大街36号院望京西园二区203号楼2单元,Beijing,Beijing,China,40.009908,116.47901
2,104,Cainiao,北京市朝阳区望京街道南湖中园107号楼,Beijing,Beijing,China,40.008964,116.469089
2,105,Cainiao,北京市朝阳区大屯路辅路,Beijing,Beijing,China,40.008719,116.420603
2,106,Cainiao,北京市朝阳区六里屯街道八里庄北里小区317号楼,Beijing,Beijing,China,39.933361,116.506568
2,107,Cainiao,北京市朝阳区建外街道光辉南里小区3号楼,Beijing,Beijing,China,39.91195,116.48012
2,108,Cainiao,北京市朝阳区安贞街道安华西里一区4号楼,Beijing,Beijing,China,39.974501,116.404319
2,109,Cainiao,北京市通州区云景南大街62号附近,Beijing,Beijing,China,39.881409,116.665333
2,110,Cainiao,北京市通州区梨园镇九棵树通景园191号楼,Beijing,Beijing,China,39.884527,116.648516
2,111,Cainiao,梨园镇群芳园小区11号楼二单元,Beijing,Beijing,China,39.877754,116.67234
2,112,Cainiao,梨园葛布店东里9号楼413底商便民超市,Beijing,Beijing,China,39.897958,116.673544
2,113,Cainiao,北京市通州区怡乐北街蓝调沙龙12号楼211,Beijing,Beijing,China,39.893574,116.656892
2,114,Cainiao,劲松街道街道华腾园11号楼103菜鸟驿站,Beijing,Beijing,China,39.893547,116.473874
2,115,Cainiao,北京市丰台区南三环东路辅路,Beijing,Beijing,China,39.863906,116.44302
2,116,Cainiao,北京市丰台区芳群路,Beijing,Beijing,China,39.876581,116.432535
2,117,Cainiao,北京市西城区清芷园10号楼,Beijing,Beijing,China,39.879755,116.377875
2,118,Cainiao,北京市西城区陶然亭街道姚家井二巷1号楼,Beijing,Beijing,China,39.881767,116.381991
2,119,Cainiao,马家堡东路108号,Beijing,Beijing,China,39.847286,116.394932
2,120,Cainiao,远洋自然南门百福莱洗衣,Beijing,Beijing,China,39.848061,116.396006
2,121,Cainiao,瀛海镇南海家园三里北门,Beijing,Beijing,China,39.768284,116.504196
2,122,Cainiao,北京市海淀区西三旗街道永泰西里3号楼,Beijing,Beijing,China,40.038609,116.363036
2,123,Cainiao,北京市昌平区回龙观街道龙兴园中区9号楼,Beijing,Beijing,China,40.068305,116.326727
2,124,Cainiao,北京市海淀区黑山沪路甲17号附近,Beijing,Beijing,China,40.03019,116.271547
2,125,Cainiao,海淀街道大钟寺太阳园8号楼8号楼楼下菜鸟驿站,Beijing,Beijing,China,39.97708,116.348398
2,126,Cainiao,西直门北大街47号院一号楼隔壁家酒铺,Beijing,Beijing,China,39.954109,116.362319
2,127,Cainiao,中关村街道中关村东路102号金谷园1号楼菜鸟驿站,Beijing,Beijing,China,39.981285,116.341117
2,128,Cainiao,北京市海淀区常青园一区二号楼菜鸟驿站,Beijing,Beijing,China,39.961906,116.279431
2,129,Cainiao,万寿路八宝庄中区8号楼,Beijing,Beijing,China,39.928439,116.299925
2,130,Cainiao,北京市海淀区八里庄街道北洼路双紫小区甲29-2平价超市,Beijing,Beijing,China,39.94591,116.306323
2,131,Cainiao,西三环北路25号,Beijing,Beijing,China,39.938665,116.320604
2,132,Cainiao,北京市石景山区北工大北街,Beijing,Beijing,China,39.938256,116.213495
2,133,Cainiao,北京市石景山区,Beijing,Beijing,China,39.920224,116.207219
2,134,Cainiao,海特花园12号楼,Beijing,Beijing,China,39.93815,116.196839
2,135,Cainiao,苹果园街道西井一区8西井一区-1号楼菜鸟驿站,Beijing,Beijing,China,39.938486,116.202116
2,136,Cainiao,北京市石景山区鲁谷大街9附近,Beijing,Beijing,China,39.907438,116.235118
2,137,Cainiao,天宁寺前街南里8号楼,Beijing,Beijing,China,39.897303,116.350149
2,138,Cainiao,卢沟桥乡马连道高楼村高楼5号院3号楼楼下丰巢,Beijing,Beijing,China,39.878904,116.332364
2,139,Cainiao,北京市西城区广安门北街20号楼,Beijing,Beijing,China,39.897207,116.357329
2,140,Cainiao,北京市丰台区西客站南路太平桥东里18号楼菜鸟驿站,Beijing,Beijing,China,39.892078,116.328353
2,141,Cainiao,北京市丰台区近园路10号附近,Beijing,Beijing,China,39.867768,116.294098
2,142,Cainiao,靛厂路,Beijing,Beijing,China,39.895519,116.289089
2,143,Cainiao,北京市丰台区京开西路,Beijing,Beijing,China,39.833254,116.344271
2,144,Cainiao,北京市丰台区程庄北里19号楼,Beijing,Beijing,China,39.858811,116.27037
2,145,Cainiao,卢沟桥街道卢沟桥路五里店和光里小区15号楼菜鸟驿站,Beijing,Beijing,China,39.86576,116.264272
2,146,Cainiao,北京市石景山区鲁谷街道聚兴园小区5号楼,Beijing,Beijing,China,39.897342,116.230137
2,147,Cainiao,北京市丰台区二七车辆厂张郭庄22号楼菜鸟驿站,Beijing,Beijing,China,39.85771,116.202782
2,148,Cainiao,北京市丰台区明春东园24号楼菜鸟驿站,Beijing,Beijing,China,39.791806,116.30414
2,149,Cainiao,北京市大兴区清城南区2号楼菜鸟驿站,Beijing,Beijing,China,39.743044,116.334289
2,150,Cainiao,北京市大兴区滨河东里3号楼,Beijing,Beijing,China,39.758429,116.349054
2,151,Cainiao,北京市大兴区清源街道兴华园小区21号楼二单元菜鸟驿站,Beijing,Beijing,China,39.751774,116.340852
2,152,Cainiao,北京市大兴区黄村镇枣园东里1号楼,Beijing,Beijing,China,39.756095,116.341005
2,153,Cainiao,北京市大兴区兴丰街道黄村西大街65号阳光乐府21号楼,Beijing,Beijing,China,39.738662,116.334275
2,154,Cainiao,北京市房山区长阳镇加州水郡西区172号楼1单元101室,Beijing,Beijing,China,39.771957,116.165278
2,155,Cainiao,拱辰街道良乡东关ABC幼儿园西侧,Beijing,Beijing,China,39.737741,116.159045
2,156,Cainiao,北京市房山区S316(长虹东路),Beijing,Beijing,China,39.730425,116.144282
2,157,Cainiao,北京市房山区星城街道燕化星城健德二里16号楼菜鸟驿站,Beijing,Beijing,China,39.716128,116.071259
2,158,Cainiao,金海湖将军关新村93号小强超市,Beijing,Beijing,China,40.269116,117.327802
2,159,Cainiao,北京市密云区石桥西区26号楼,Beijing,Beijing,China,40.388632,116.873625
2,160,Cainiao,长安小区15号楼3单元,Beijing,Beijing,China,40.378015,116.848371
2,161,Cainiao,梨园镇翠屏北里东区207号楼菜鸟驿站,Beijing,Beijing,China,39.895692,116.657109
2,162,Cainiao,北京市朝阳区南磨房西大望路双龙南里220号楼底商便利超市,Beijing,Beijing,China,39.874228,116.486262
2,163,Cainiao,北京市朝阳区十八里店周庄嘉园6号院6号楼,Beijing,Beijing,China,39.865601,116.485124
2,164,Cainiao,北京市朝阳区市磨房北里小区133号楼,Beijing,Beijing,China,39.886562,116.483348
2,165,Cainiao,武圣东路松榆里社区松榆里12号楼楼下停车处,Beijing,Beijing,China,39.879083,116.478515
2,166,Cainiao,市南磨房镇御景园2号楼菜鸟驿站,Beijing,Beijing,China,39.874126,116.469099
2,167,Cainiao,北京市朝阳区北京工业大学北操场看台1层,Beijing,Beijing,China,39.882979,116.488691
2,168,Cainiao,北京市朝阳区公园路,Beijing,Beijing,China,39.857331,116.535593
2,169,Cainiao,北京市朝阳区十八里店南桥鸿博家园一期b区2号楼,Beijing,Beijing,China,39.837061,116.479278
2,170,Cainiao,北京市丰台区马家堡西里33号楼,Beijing,Beijing,China,39.858856,116.380766
2,171,Cainiao,北京市丰台区东铁匠营街道横一条甲18号院5号楼,Beijing,Beijing,China,39.856641,116.442873
2,172,Cainiao,北京市丰台区嘉园路辅路,Beijing,Beijing,China,39.855373,116.372509
2,173,Cainiao,北京市大兴区旧宫镇清逸园小区1号楼,Beijing,Beijing,China,39.809416,116.453118
2,174,Cainiao,回龙观街道龙乡中区10号楼菜鸟驿站,Beijing,Beijing,China,40.068344,116.343391
2,175,Cainiao,回龙观新康园小区南门12号楼底商家百惠超市,Beijing,Beijing,China,40.070543,116.355507
2,176,Cainiao,北京市海淀区清河街道安宁庄西路2号安宁庄西路9号院25号楼,Beijing,Beijing,China,40.047834,116.322693
2,177,Cainiao,北京市海淀区,Beijing,Beijing,China,40.027346,116.350927
2,178,Cainiao,学院路街道清华东路27号院5号楼菜鸟驿站,Beijing,Beijing,China,40.006996,116.357341
2,179,Cainiao,学院路14号院15号楼前小停车场菜鸟驿站,Beijing,Beijing,China,40.008472,116.358021
2,180,Cainiao,温泉镇白家疃西口尚峰尚水尚品园3号楼1单元菜鸟驿站,Beijing,Beijing,China,40.050049,116.191491
2,181,Cainiao,青龙桥街道红山口甲三号,Beijing,Beijing,China,40.024265,116.272801
2,182,Cainiao,北京市西城区北礼士路103号平价超市,Beijing,Beijing,China,39.940037,116.359696
2,183,Cainiao,展览路街道甘家口1号楼,Beijing,Beijing,China,39.931499,116.33596
2,184,Cainiao,三环到四环之间海淀定慧东里24号楼菜鸟驿站,Beijing,Beijing,China,39.927428,116.292277
2,185,Cainiao,定慧西里20号楼菜鸟驿站,Beijing,Beijing,China,39.928957,116.289045
2,186,Cainiao,北京市海淀区四季青镇四季青常青园一区7号楼,Beijing,Beijing,China,39.961833,116.277343
2,187,Cainiao,椿楸嘉园11号楼1单元602室西门菜鸟驿站,Beijing,Beijing,China,39.943747,116.259243
2,188,Cainiao,苹果园街道西黄新村北里12号楼菜鸟驿站,Beijing,Beijing,China,39.941925,116.20947
2,189,Cainiao,金顶阳光枫景园3号楼菜鸟驿站,Beijing,Beijing,China,39.935687,116.173262
2,190,Cainiao,北京市石景山区金顶街街道金顶阳光柳青园9号楼,Beijing,Beijing,China,39.934254,116.170713
2,191,Cainiao,北京市石景山区金顶北路18号院13号楼,Beijing,Beijing,China,39.932829,116.172771
2,192,Cainiao,北京市丰台区右安门街道右安门外玉林里37号楼,Beijing,Beijing,China,39.869143,116.365736
2,193,Cainiao,丰台街道丰台北路庄维花园4号楼菜鸟驿站,Beijing,Beijing,China,39.870606,116.296295
2,194,Cainiao,文体路永善里2号楼,Beijing,Beijing,China,39.855146,116.292584
2,195,Cainiao,狼垡一村停车场旁菜鸟驿站,Beijing,Beijing,China,39.783442,116.293387
2,196,Cainiao,北京市房山区市房山区长阳镇金地朗悦一期7号楼,Beijing,Beijing,China,39.738394,116.198988
2,197,Cainiao,长阳镇九洲溪雅苑二区15号楼菜鸟驿站,Beijing,Beijing,China,39.778077,116.185647
2,198,Cainiao,北京市房山区黄辛庄东里15号楼菜鸟驿站,Beijing,Beijing,China,39.761646,116.154747
2,199,Cainiao,北京市房山区拱辰街道东羊庄新村二号楼菜鸟驿站,Beijing,Beijing,China,39.735801,116.170989
2,200,Cainiao,北京市大兴区采育镇育新花园中里a区14号楼,Beijing,Beijing,China,39.664336,116.641989
2,201,Cainiao,新源时代小区2号楼4单元菜鸟驿站,Beijing,Beijing,China,39.696905,116.334217
2,202,Cainiao,星城街道燕化星城健德二里28号楼菜鸟驿站,Beijing,Beijing,China,39.713888,116.070501
2,203,Cainiao,北京市房山区城关镇前朱各庄安置房1号楼,Beijing,Beijing,China,39.720006,116.018402
2,204,Cainiao,马家堡街道北京市丰台区马家堡西路26号流星院2号楼107天天超市,Beijing,Beijing,China,39.847685,116.37803
2,205,Cainiao,北京市房山区文化路16号楼,Beijing,Beijing,China,39.740829,116.151298
2,206,Cainiao,望楚村一区7号,Beijing,Beijing,China,39.66336,116.089342
2,207,Cainiao,长阳镇107国道聚客联益旁边,Beijing,Beijing,China,39.739907,116.228498
2,208,Cainiao,北京市昌平区水厂路甲12号,Beijing,Beijing,China,40.239557,116.134257
2,209,Cainiao,良乡大学城站路南首创紫悦台,Beijing,Beijing,China,39.726416,116.187616
2,210,Cainiao,北京市通州区新建村二期高层10号楼3单元101室,Beijing,Beijing,China,39.938621,116.648869
2,211,Cainiao,北京市海淀区八里庄街道八里庄路62号院2号楼,Beijing,Beijing,China,39.934699,116.284582
2,212,Cainiao,沙河镇北街家园6区21号楼底商109百世,Beijing,Beijing,China,40.166928,116.264673
2,213,Cainiao,北京市朝阳区常营镇北京像素南区8号楼,Beijing,Beijing,China,39.932721,116.624921
2,214,Cainiao,西罗园街道角门东里5号楼105号楼后食品店香烟冷饮批发店,Beijing,Beijing,China,39.855198,116.389565
2,215,Cainiao,城南街道凉水河路龙山跃1号院2号楼110号便民超市,Beijing,Beijing,China,40.205313,116.240456
2,216,Cainiao,小红门鸿博家园一期B区南门底商洋河蓝色经典名呀名酒超市,Beijing,Beijing,China,39.834757,116.479722
2,217,Cainiao,北京市大兴区后辛庄村永华路13号,Beijing,Beijing,China,39.727491,116.28493
2,218,Cainiao,北京市丰台区警备东路53号,Beijing,Beijing,China,39.809529,116.408507
2,219,Cainiao,北京市朝阳区左家庄西街8号楼5单元东102室,Beijing,Beijing,China,39.95875,116.446942
2,220,Cainiao,三间房建国路18号院珠江绿洲8号楼104室,Beijing,Beijing,China,39.913162,116.565165
2,221,Cainiao,新建村二期高层4号楼一单元104,Beijing,Beijing,China,39.935126,116.651859
2,222,Cainiao,卢沟桥街道莲怡园北路1号院2号楼8门101号便民商店,Beijing,Beijing,China,39.892658,116.304431
2,223,Cainiao,北京市朝阳区黑庄户万子营东村电脑维修(万子营西村活动中心向东150米),Beijing,Beijing,China,39.868669,116.603667
2,224,Cainiao,周口店镇新街大街7号,Beijing,Beijing,China,39.663436,115.945146
2,225,Cainiao,北京市大兴区明春西园9号楼,Beijing,Beijing,China,39.79209,116.295566
2,226,Cainiao,南彩镇彩俸小区1号楼1单元底商三龙胜发商店,Beijing,Beijing,China,40.135133,116.709372
2,227,Cainiao,长辛店街道张郭庄二七车辆厂小区27楼招待所处菜鸟驿站,Beijing,Beijing,China,39.858307,116.203539
2,228,Cainiao,万寿路街道万寿路一号院9号楼洗衣店,Beijing,Beijing,China,39.925057,116.292576
2,229,Cainiao,北京市通州区台湖镇蒋辛庄131号,Beijing,Beijing,China,39.820341,116.643983
2,230,Cainiao,逸成东苑2号楼3单元101室(东区),Beijing,Beijing,China,40.019841,116.357561
2,231,Cainiao,长辛店街道张郭庄南路单身宿舍4楼底商65号名烟名酒,Beijing,Beijing,China,39.855304,116.203612
2,232,Cainiao,长阳镇加州水郡西区151栋36号恒协干洗,Beijing,Beijing,China,39.776873,116.170934
2,233,Cainiao,长辛店镇长兴路12号中体奥园一区1号楼105北京兴盛康医药,Beijing,Beijing,China,39.841844,116.198366
2,234,Cainiao,西红门镇南四条团河村社区卫生服务站对面,Beijing,Beijing,China,39.752932,116.390568
2,235,Cainiao,清源街道北京市大兴区康庄路53号院康泰园小区7号楼2单元101,Beijing,Beijing,China,39.763391,116.316789
2,236,Cainiao,温榆河西路西100米,Beijing,Beijing,China,39.936253,116.651025
2,237,Cainiao,北京市昌平区立水桥西路,Beijing,Beijing,China,40.069043,116.415156
2,238,Cainiao,小汤山镇赴沟路土沟新村南区22号楼5-102,Beijing,Beijing,China,40.15911,116.463937
2,239,Cainiao,北京市昌平区府学路宁馨苑1号楼商业10号北京康安亿家净环保科技有限公司,Beijing,Beijing,China,40.227357,116.265502
2,240,Cainiao,大东新村学步街32-4,Beijing,Beijing,China,39.682935,116.534317
2,241,Cainiao,望京花家地方舟苑6号楼103室超市水站(方舟苑店),Beijing,Beijing,China,39.985089,116.471536
2,242,Cainiao,风雅园一区18号楼花语贝思儿童摄影内,Beijing,Beijing,China,40.090513,116.328806
2,243,Cainiao,孙河北京市朝阳区孙河康营十五区四号楼一单元104,Beijing,Beijing,China,40.043078,116.547575
2,244,Cainiao,北京市朝阳区安贞街道安贞里一区27号楼,Beijing,Beijing,China,39.981184,116.408537
2,245,Cainiao,拱辰街道拱辰大街阳光邑上41-7,Beijing,Beijing,China,39.735766,116.168141
2,246,Cainiao,宋庄镇内军庄村临16号振新超市,Beijing,Beijing,China,40.013009,116.70993
2,247,Cainiao,呼家楼街道向军北里28号院2号楼101,Beijing,Beijing,China,39.930772,116.465961
2,248,Cainiao,回龙观北京市昌平区回龙观龙博苑一区3号楼110底商便民超市,Beijing,Beijing,China,40.075337,116.342535
2,249,Cainiao,海特花园26号楼车棚北京市利君雪静食品店,Beijing,Beijing,China,39.939732,116.19053
2,250,Cainiao,金海湖将军关新村93号小强超市,Beijing,Beijing,China,40.268916,117.327795
2,251,Cainiao,北京市顺义区马坡中晟馨苑小区4号院3号楼1单元104室,Beijing,Beijing,China,40.176403,116.639798
2,252,Cainiao,北京市朝阳区华严北里52号楼(金渝饭店对面)北京鼎鑫电脑维修中心,Beijing,Beijing,China,39.988813,116.390171
2,253,Cainiao,回龙观龙锦三街龙锦苑东三区1号楼超市,Beijing,Beijing,China,40.090088,116.375676
2,254,Cainiao,北七家镇北京市昌平区白各庄新村28号楼4单元102,Beijing,Beijing,China,40.12019,116.360817
2,255,Cainiao,北京市海淀区四道口2号院1号楼一层98全家便利店,Beijing,Beijing,China,39.964818,116.357962
2,256,Cainiao,张坊镇张坊村城门楼门口向北沿主路500米路边北京特产店(韵达旁),Beijing,Beijing,China,39.579387,115.718544
2,257,Cainiao,马坊村317号,Beijing,Beijing,China,40.161259,116.413745
2,258,Cainiao,天通苑南街道北京市昌平区天通苑东一区33号楼3单元101底商,Beijing,Beijing,China,40.071114,116.440532
2,259,Cainiao,双清路30号清华大学五区93号,Beijing,Beijing,China,40.000314,116.331151
2,1,EMS,北京市丰台区长辛店北岗洼58号,Beijing,Beijing,China,39.799431,116.199653
2,2,EMS,北京市海淀区闵航路3号,Beijing,Beijing,China,39.977291,116.265932
2,3,EMS,北京市海淀区茉莉园西里21号楼102,Beijing,Beijing,China,40.05463,116.258449
2,4,EMS,北京市海淀区万寿路街道翠微中里14号楼,Beijing,Beijing,China,39.921543,116.302719
2,5,EMS,北京市海淀区海淀街道小南庄21号楼,Beijing,Beijing,China,39.971625,116.311315
2,6,EMS,北京市海淀区紫竹院街道紫竹院路赛迪大厦邮政速递,Beijing,Beijing,China,39.946764,116.318733
2,7,EMS,北京市海淀区大柳树路17号富海国际港1层,Beijing,Beijing,China,39.959007,116.341636
2,8,EMS,紫金数码园4,Beijing,Beijing,China,39.984054,116.342733
2,9,EMS,北京市海淀区北下关街道北三环西路大钟寺13号华杰大厦一层底商,Beijing,Beijing,China,39.970387,116.347174
2,10,EMS,海淀区新村路29号7-1号,Beijing,Beijing,China,39.983321,116.349024
2,11,EMS,三里河二区乙23号,Beijing,Beijing,China,39.915215,116.350808
2,12,EMS,清河镇四拨子村66号,Beijing,Beijing,China,40.051323,116.341377
2,13,EMS,复兴门南大街与真武庙路四条交叉口西南50米,Beijing,Beijing,China,39.90872,116.362607
2,14,EMS,北京市朝阳区G6辅路,Beijing,Beijing,China,40.01024,116.375034
2,15,EMS,政府街25号,Beijing,Beijing,China,40.226175,116.234438
2,16,EMS,北京市大兴区清源街道乐园路4号院绿地中央广场兴贸中心3号楼,Beijing,Beijing,China,39.771703,116.340605
2,17,EMS,北京市东城区前门东大街7号,Beijing,Beijing,China,39.907837,116.412845
2,18,EMS,北京市东城区和平里西街56号,Beijing,Beijing,China,39.965797,116.424009
2,19,EMS,大红门南顶村甲41号,Beijing,Beijing,China,39.851648,116.41583
2,20,EMS,知春路紫金数码园4号楼底商,Beijing,Beijing,China,39.984519,116.343179
2,21,EMS,西绒线胡同6-1,Beijing,Beijing,China,39.910271,116.388587
2,22,EMS,北京市东城区张自忠路10号,Beijing,Beijing,China,39.939342,116.417691
2,23,EMS,北京市海淀区北蜂窝路8-2,Beijing,Beijing,China,39.910723,116.335836
2,24,EMS,北京市朝阳区奥运村街道中国农机院8号楼邮政ems政务中心,Beijing,Beijing,China,40.01012,116.375504
2,25,EMS,中关村丹棱街16号海星大厦南门一层底商,Beijing,Beijing,China,39.98392,116.316054
2,26,EMS,北京市海淀区紫竹院路10号,Beijing,Beijing,China,39.946204,116.320643
2,27,EMS,北京市海淀区海淀大街银科大厦7层706收发室,Beijing,Beijing,China,39.987873,116.312829
2,28,EMS,北京市海淀区西交机场闵航路3号,Beijing,Beijing,China,39.977453,116.266092
2,29,EMS,北四环中路229号海泰大厦1612室,Beijing,Beijing,China,39.995031,116.372425
2,30,EMS,北京市海淀区蓝靛厂南路25号嘉友国际大厦B1层1001室,Beijing,Beijing,China,39.952308,116.299223
2,31,EMS,正阳大街115号,Beijing,Beijing,China,39.856328,116.298071
2,32,EMS,新华大街87,Beijing,Beijing,China,39.770223,117.00639
2,33,EMS,广阳道1号,Beijing,Beijing,China,39.54546,116.735407
2,34,EMS,光明东道90号,Beijing,Beijing,China,39.519016,116.73738
2,1,JD,甘家口大厦,Beijing,Beijing,China,39.92976,116.341759
2,2,JD,北京市昌平区回南路南50米,Beijing,Beijing,China,40.09341,116.415828
2,3,JD,马坡秦武姚村一街一号,Beijing,Beijing,China,40.183929,116.64598
2,4,JD,北京市丰台区南三环西路北京宝隆大厦底商京东营业点,Beijing,Beijing,China,39.856267,116.339052
2,5,JD,北京市通州区辛房路,Beijing,Beijing,China,39.726081,116.550613
2,6,JD,北京市海淀区唐家岭路与东北旺路交叉路口向东南约200米(八维研修学院),Beijing,Beijing,China,40.047717,116.305065
2,7,JD,常营优点社区8号楼底商,Beijing,Beijing,China,39.936694,116.595992
2,8,JD,回龙观龙锦苑东一区一号楼底商,Beijing,Beijing,China,40.09584,116.37233
2,9,JD,西三旗街道安宁庄北路1号北京陶瓷厂,Beijing,Beijing,China,40.047048,116.34471
2,10,JD,周家庄路133号(十八里店十里河居然之家后),Beijing,Beijing,China,39.864243,116.476583
2,11,JD,北京市西城区福长街38号,Beijing,Beijing,China,39.890839,116.401947
2,12,JD,七星路与北清路交叉口东50米,Beijing,Beijing,China,40.109545,116.440512
2,13,JD,北京市大兴区采育镇沙窝营街北巷5号,Beijing,Beijing,China,39.64417,116.650234
2,14,JD,北京市朝阳区南磨房镇沿海赛洛城416楼底商,Beijing,Beijing,China,39.901337,116.512668
2,15,JD,古城西路甲8号如意小区院内综合楼如意公寓,Beijing,Beijing,China,39.91882,116.190518
2,16,JD,北京市房山区长阳路与阳光北大街交叉路口向北约100米(长阳家园-A区),Beijing,Beijing,China,39.759408,116.178209
2,17,JD,范焦路与驾校中路交叉口西南150米,Beijing,Beijing,China,39.945388,116.693986
2,18,JD,燕山地区羊头岗村村西加油站,Beijing,Beijing,China,39.73138,116.011683
2,19,JD,北京市东城区北河沿大街81号,Beijing,Beijing,China,39.933807,116.412157
2,20,JD,北京市顺义区前景南路与顺于路交叉路口向南约100米,Beijing,Beijing,China,40.134795,116.64148
2,21,JD,北京市丰台区丰科路6号院6号楼1层2-130室,Beijing,Beijing,China,39.829058,116.305257
2,22,JD,北京市通州区京东开汽车修理厂(百尚购物广场),Beijing,Beijing,China,39.808951,116.57774
2,23,JD,北京市朝阳区黑庄户大鲁店张台路甲9号(原易迅库区门口),Beijing,Beijing,China,39.835015,116.602148
2,24,JD,北京市朝阳区南四环东路辅路731号,Beijing,Beijing,China,39.845341,116.480034
2,25,JD,北京市通州区宋庄焦刘路东潞苑尚东庭东区,Beijing,Beijing,China,39.944934,116.684326
2,26,JD,北京市昌平区马池口镇神牛路新世纪商城1楼,Beijing,Beijing,China,40.191671,116.175562
2,27,JD,十八里店镇十里河饮马井一号院新坐标楼下底商,Beijing,Beijing,China,39.873691,116.450178
2,28,JD,北京市朝阳区和平街街道香樟园宾馆后院,Beijing,Beijing,China,39.960535,116.437016
2,29,JD,云岗路,Beijing,Beijing,China,39.810175,116.1892
2,30,JD,北京市通州区富河大街331号尚客优快捷酒店(物资学院地铁站店)附近,Beijing,Beijing,China,39.933524,116.641315
2,31,JD,北京市海淀区苏州街20号院附近,Beijing,Beijing,China,39.982475,116.313033
2,32,JD,于家务回族乡金禾堂大药房后面,Beijing,Beijing,China,39.725976,116.718371
2,33,JD,北京市朝阳区大鲁店北路30号,Beijing,Beijing,China,39.853301,116.590498
2,34,JD,北京市石景山区喜玛裕商品交易广场内,Beijing,Beijing,China,39.941725,116.12769
2,35,JD,梨园镇荟萃园底商,Beijing,Beijing,China,39.870084,116.668449
2,36,JD,来广营北苑家园绣菊园17号楼底商,Beijing,Beijing,China,40.049281,116.432785
2,37,JD,御路园15号楼g6辅路鸿圣精装公寓,Beijing,Beijing,China,40.222948,116.227412
2,1,Shunfeng,北京市昌平区回龙观佰嘉城小区7号楼底商,Beijing,Beijing,China,40.088065,116.320135
2,2,Shunfeng,静安东里28号楼,Beijing,Beijing,China,39.961918,116.456317
2,3,Shunfeng,四员厅街14号,Beijing,Beijing,China,39.909224,116.666368
2,4,Shunfeng,大方家胡同40号楼,Beijing,Beijing,China,39.924852,116.434084
2,5,Shunfeng,北京市西城区马连道南街6号华睦大厦1层,Beijing,Beijing,China,39.889209,116.331646
2,6,Shunfeng,北京市昌平区兴寿镇香屯村3号(兴香路南50米),Beijing,Beijing,China,40.201149,116.41374
2,7,Shunfeng,北京市通州区紫运北街64,Beijing,Beijing,China,39.919807,116.709811
2,8,Shunfeng,北京市通州区永顺镇通惠南路6号院7号楼,Beijing,Beijing,China,39.915216,116.650684
2,9,Shunfeng,北京市朝阳区望京西路48北50米,Beijing,Beijing,China,39.993402,116.464108
2,10,Shunfeng,北京市朝阳区奥运村街道北苑路13号领地大厦顺丰快递,Beijing,Beijing,China,40.046391,116.42105
2,11,Shunfeng,霄云路38号现代汽车大厦楼外顺丰快递,Beijing,Beijing,China,39.961833,116.469299
2,12,Shunfeng,北京市朝阳区麦子店街道麦子店36号龙宝大厦楼下顺丰速运,Beijing,Beijing,China,39.953812,116.474867
2,13,Shunfeng,北京市朝阳区朝阳门外大街昆泰大厦一层,Beijing,Beijing,China,39.928215,116.455093
2,14,Shunfeng,北京市朝阳区青年湖北街,Beijing,Beijing,China,39.968184,116.411813
2,15,Shunfeng,北京市东城区和平里街道兴化西里一号楼,Beijing,Beijing,China,39.965756,116.420016
2,16,Shunfeng,北京市朝阳区朝阳门外大街99-9号附近,Beijing,Beijing,China,39.929968,116.451689
2,17,Shunfeng,北京市通州区马驹桥镇金桥花园21号楼,Beijing,Beijing,China,39.757215,116.554295
2,18,Shunfeng,沙子口路78号院A座,Beijing,Beijing,China,39.865352,116.40276
2,19,Shunfeng,民族大学西路42号附近,Beijing,Beijing,China,39.957608,116.3237
2,20,Shunfeng,丰台区新丰路大瓦窑中路90号,Beijing,Beijing,China,39.876467,116.245654
2,21,Shunfeng,北京市房山区凯旋大街8号,Beijing,Beijing,China,39.727076,116.144145
2,22,Shunfeng,北京市大兴区万采路,Beijing,Beijing,China,39.655923,116.628702
2,23,Shunfeng,中心路与研垡路交叉口北100米,Beijing,Beijing,China,39.637969,116.426525
2,24,Shunfeng,良南路与良官公路交叉口西南100米,Beijing,Beijing,China,39.700543,116.15443
2,25,Shunfeng,北京市房山区新泗路泰达小区底商,Beijing,Beijing,China,39.662306,115.939923
2,26,Shunfeng,密三路东150米,Beijing,Beijing,China,40.146486,117.030758
2,27,Shunfeng,北京市顺义区X004(木北路),Beijing,Beijing,China,40.142028,116.833677
2,28,Shunfeng,北京市顺义区南法信顺平路566号航港国际大厦后楼8层,Beijing,Beijing,China,40.120575,116.615389
2,29,Shunfeng,东北路附近,Beijing,Beijing,China,40.135093,116.409919
2,30,Shunfeng,北京市昌平区太海路,Beijing,Beijing,China,40.090183,116.448789
2,31,Shunfeng,北京市延庆区s220省道西边2019中国北京世界园艺博览会内,Beijing,Beijing,China,40.442973,115.947831
2,32,Shunfeng,北京市朝阳区定福庄东街1-西门附近,Beijing,Beijing,China,39.918673,116.561096
2,33,Shunfeng,北京市朝阳区,Beijing,Beijing,China,40.021822,116.53579
2,34,Shunfeng,望京国际商业中心f座顺丰快递,Beijing,Beijing,China,39.995492,116.489232
2,35,Shunfeng,远洋天地67号101,Beijing,Beijing,China,39.917831,116.499269
2,36,Shunfeng,t柏路与t马路交叉口西北150米,Beijing,Beijing,China,39.761279,116.672346
2,37,Shunfeng,北京市通州区融商三路32号,Beijing,Beijing,China,39.771116,116.59321
2,38,Shunfeng,武圣东路磨房南里32号楼,Beijing,Beijing,China,39.883403,116.480507
2,39,Shunfeng,北京市西城区石头胡同72号,Beijing,Beijing,China,39.896491,116.397074
2,40,Shunfeng,北京市丰台区马家堡街道马家堡路154号院1号楼,Beijing,Beijing,China,39.848446,116.386011
2,41,Shunfeng,北京市东城区东四街道新中西街二号新中大厦,Beijing,Beijing,China,39.93899,116.444651
2,42,Shunfeng,北京市朝阳区王四营镇广渠东路储运公司211顺丰速运,Beijing,Beijing,China,39.895564,116.517387
2,43,Shunfeng,北京市东城区安乐林路新奥洋房9号楼底商,Beijing,Beijing,China,39.870451,116.415432
2,44,Shunfeng,北京市市丰台区南苑路9号天雅女装大厦顺丰快递,Beijing,Beijing,China,39.85883,116.405736
2,45,Shunfeng,北京市丰台区石榴庄西街232号北门,Beijing,Beijing,China,39.848193,116.424868
2,46,Shunfeng,北京市丰台区西罗园南里,Beijing,Beijing,China,39.855086,116.401837
2,47,Shunfeng,北京市大兴区经济技术开发区兴盛街21号中京阳科技园顺丰快递,Beijing,Beijing,China,39.802839,116.53149
2,48,Shunfeng,芙蓉里南街6号院百环公寓1层,Beijing,Beijing,China,39.992702,116.308697
2,49,Shunfeng,北京市大兴区兴业大街顺驰领海底商57-7,Beijing,Beijing,China,39.779562,116.328503
2,50,Shunfeng,黄村镇文新南街272号院5号楼,Beijing,Beijing,China,39.706303,116.302986
2,51,Shunfeng,丰台区建欣苑二里八号楼底商,Beijing,Beijing,China,39.848934,116.403133
2,52,Shunfeng,光彩路65号院彩虹城四区1号楼底商,Beijing,Beijing,China,39.84579,116.420965
2,53,Shunfeng,大窦路水墨林溪B门,Beijing,Beijing,China,39.695329,116.071784
2,54,Shunfeng,北京市朝阳区朝外大街乙6号朝外SOHOD座1层0177,Beijing,Beijing,China,39.926265,116.461512
2,55,Shunfeng,北京市海淀区海淀中街15号远中悦来大厦1楼,Beijing,Beijing,China,39.983636,116.316675
2,56,Shunfeng,北京市丰台区马官营南路8号风荷曲苑14号楼1层,Beijing,Beijing,China,39.890404,116.307027
2,57,Shunfeng,南四环西路188号总部基地11区39号楼,Beijing,Beijing,China,39.826594,116.28909
2,58,Shunfeng,北京市朝阳区西大望路12号,Beijing,Beijing,China,39.911415,116.486071
2,59,Shunfeng,北京市顺义区怡馨家园29号楼,Beijing,Beijing,China,40.127675,116.653284
2,60,Shunfeng,北京市朝阳区安华西里2区10号楼,Beijing,Beijing,China,39.971101,116.404013
2,61,Shunfeng,北京市怀柔区庙城镇富密路顺河家园旁,Beijing,Beijing,China,40.303341,116.629227
2,62,Shunfeng,北京市朝阳区三间房定福庄定福景园底商,Beijing,Beijing,China,39.926512,116.573216
2,63,Shunfeng,前拐棒胡同28号院1层,Beijing,Beijing,China,39.929413,116.428515
2,64,Shunfeng,北京市海淀区海淀南路19号远中悦莱大厦,Beijing,Beijing,China,39.983579,116.316387
2,65,Shunfeng,北京市朝阳区北辰福第北区,Beijing,Beijing,China,39.935508,116.606227
2,66,Shunfeng,后厂村路66号冬晴园小区11号楼1层2号,Beijing,Beijing,China,40.055249,116.273908
2,67,Shunfeng,北京市海淀区北三环西路38号双安商场1F层,Beijing,Beijing,China,39.97185,116.332493
2,68,Shunfeng,太平桥路华源四里1号楼底商,Beijing,Beijing,China,39.887876,116.324509
2,69,Shunfeng,北京市朝阳区霄云路7号,Beijing,Beijing,China,39.968571,116.475537
2,70,Shunfeng,北京市东城区王府井大街218号B4层,Beijing,Beijing,China,39.916658,116.418635
2,71,Shunfeng,裕华路34号院满庭芳嘉园9-1底商,Beijing,Beijing,China,40.089561,116.554342
2,72,Shunfeng,北京市顺义区高丽营镇丽喜花园底商甲506室,Beijing,Beijing,China,40.163535,116.558841
2,73,Shunfeng,北京市朝阳区酒仙桥万红路5号蓝涛中心内,Beijing,Beijing,China,39.987721,116.501444
2,74,Shunfeng,北京市朝阳区延静里中街28号,Beijing,Beijing,China,39.924555,116.491049
2,75,Shunfeng,北京市东城区东直门外十字坡街8号,Beijing,Beijing,China,39.94431,116.446216
2,76,Shunfeng,北京市丰台区花乡高立庄636号,Beijing,Beijing,China,39.799803,116.324427
2,77,Shunfeng,北京市朝阳区日坛北路17号日坛国际贸易中心F1,Beijing,Beijing,China,39.924886,116.44959
2,78,Shunfeng,美术馆后街12号,Beijing,Beijing,China,39.938672,116.415746
2,79,Shunfeng,梨园镇云景南大街41号,Beijing,Beijing,China,39.882336,116.661042
2,80,Shunfeng,北京市朝阳区X015(张台路),Beijing,Beijing,China,39.835084,116.601214
2,1,Shentong,北京市朝阳区建外街道建外soho东区a座申通快递,Beijing,Beijing,China,39.911768,116.467234
2,2,Shentong,北京市朝阳区西大望路三号院2号楼1层,Beijing,Beijing,China,39.916285,116.482901
2,3,Shentong,梨园镇群芳三园87号楼底商,Beijing,Beijing,China,39.875698,116.664931
2,4,Shentong,北京市丰台区马家堡街道南三环西路16号搜宝商务中心3号楼申通快递,Beijing,Beijing,China,39.86119,116.375123
2,5,Shentong,北京市丰台区草桥嘉园路星河城冬季星空,Beijing,Beijing,China,39.850735,116.371199
2,6,Shentong,八里庄街道阜成路73号裕惠大厦a座17层申通快递,Beijing,Beijing,China,39.93081,116.305315
2,7,Shentong,北京市大兴区兴安大街,Beijing,Beijing,China,39.625412,116.495699
2,8,Shentong,北京市房山区政府路1号西北90米,Beijing,Beijing,China,39.577064,115.72374
2,9,Shentong,北京市顺义区育才双语幼儿园(顺义区北小营镇政府北),Beijing,Beijing,China,40.207726,116.735458
2,10,Shentong,北京市平谷区平程路,Beijing,Beijing,China,40.168978,117.117396
2,11,Shentong,横桥村1202号,Beijing,Beijing,China,40.174697,116.198956
2,12,Shentong,皮村路东50米皮村警务工作站附近,Beijing,Beijing,China,39.995592,116.632394
2,13,Shentong,北京市丰台区樊家村甲14号院2号楼,Beijing,Beijing,China,39.854755,116.319727
2,14,Shentong,地安门西大街平安商务写字楼B1层,Beijing,Beijing,China,39.939209,116.39238
2,15,Shentong,十八里店乡十八里店村183号,Beijing,Beijing,China,39.843639,116.492998
2,16,Shentong,站东路与行宫街交叉口东南150米,Beijing,Beijing,China,40.399759,116.869969
2,17,Shentong,古城西路汽车园区4s店G区,Beijing,Beijing,China,39.924093,116.189982
2,18,Shentong,十八里店村1996号,Beijing,Beijing,China,39.838179,116.503989
2,19,Shentong,白云观街北里木樨地北里15号楼,Beijing,Beijing,China,39.90981,116.342875
2,20,Shentong,北京市丰台区大瓦窑782号,Beijing,Beijing,China,39.862829,116.236689
2,21,Shentong,建设西路林荫家园19号楼101号,Beijing,Beijing,China,40.14282,117.109064
2,22,Shentong,长辛店辛庄南路402号,Beijing,Beijing,China,39.8566,116.1569
2,23,Shentong,北京市房山区营房小区8-2-302,Beijing,Beijing,China,39.710834,115.989513
2,24,Shentong,北京市东城区北岗子街8号,Beijing,Beijing,China,39.896497,116.432393
2,25,Shentong,北京市海淀区西平庄路,Beijing,Beijing,China,39.953702,116.247955
2,26,Shentong,西红门镇嘉悦广场4号楼底商,Beijing,Beijing,China,39.792902,116.330833
2,27,Shentong,怡乐南街京洲科技园内,Beijing,Beijing,China,39.875654,116.628454
2,28,Shentong,北京市海淀区中关村大街59号中国人民大学,Beijing,Beijing,China,39.978946,116.316914
2,29,Shentong,房山区窦店镇瓦窑头路二条2号,Beijing,Beijing,China,39.67044,116.072192
2,30,Shentong,国瑞东路40号,Beijing,Beijing,China,39.903911,116.431783
2,31,Shentong,北京市海淀区永丰中路99号,Beijing,Beijing,China,40.028357,116.290655
2,32,Shentong,北京市海淀区永丰中路99号,Beijing,Beijing,China,40.05567,116.244748
2,33,Shentong,G107鑫国龙集团公司底商,Beijing,Beijing,China,39.680324,116.105403
2,34,Shentong,马驹桥镇杨秀店村168号,Beijing,Beijing,China,39.729388,116.57517
2,35,Shentong,北京市甜水园街6号,Beijing,Beijing,China,39.934847,116.486161
2,36,Shentong,北京市丰台区永合庄88号,Beijing,Beijing,China,39.82593,116.271584
2,37,Shentong,杨镇镇一街便民市场,Beijing,Beijing,China,40.159312,116.832914
2,38,Shentong,孔兴路与德觅路交叉口东北50米,Beijing,Beijing,China,39.681277,116.827347
2,39,Shentong,北京市昌平区温南路与6国道辅路交叉口南,Beijing,Beijing,China,40.248971,116.144138
2,40,Shentong,北京市通州区t县镇京塘路申通快递(雅荷春天东),Beijing,Beijing,China,39.780973,116.806855
2,1,Yuantong,北京市朝阳区圆通速递(双桥西路西),Beijing,Beijing,China,39.870964,116.595887
2,2,Yuantong,北京市大兴区青礼路,Beijing,Beijing,China,39.568167,116.469014
2,3,Yuantong,北郎中村康庄大街18号,Beijing,Beijing,China,40.214376,116.572549
2,4,Yuantong,北京市昌平区X025(龙锦二街),Beijing,Beijing,China,40.094393,116.381462
2,5,Yuantong,北京市昌平区白庙村中街,Beijing,Beijing,China,40.109715,116.394743
2,6,Yuantong,回龙观街道龙跃苑四区3号楼底商,Beijing,Beijing,China,40.081049,116.353991
2,7,Yuantong,北京市海淀区清华大学-学生区快递服务点内,Beijing,Beijing,China,40.018751,116.333569
2,8,Yuantong,延庆镇新兴小区20号楼,Beijing,Beijing,China,40.474736,115.992864
2,9,Yuantong,北京市海淀区文慧园小区16号楼1层,Beijing,Beijing,China,39.955879,116.370894
2,10,Yuantong,北京市通州区沈高路,Beijing,Beijing,China,39.803549,116.667103
2,11,Yuantong,北京市怀柔区雁栖镇八路大中富乐工业区内,Beijing,Beijing,China,40.347746,116.663592
2,12,Yuantong,崔各庄马泉营一区5号,Beijing,Beijing,China,40.044435,116.518482
2,13,Yuantong,t马路北50米,Beijing,Beijing,China,39.782377,116.787196
2,14,Yuantong,燕房路燕山体育馆西侧,Beijing,Beijing,China,39.725362,115.983225
2,15,Yuantong,北京市顺义区北小营镇北小营市场7号门面,Beijing,Beijing,China,40.208722,116.73439
2,16,Yuantong,北京市顺义区府前街焦各庄段1号大江洼公交站向北30米,Beijing,Beijing,China,40.140598,116.614593
2,17,Yuantong,北京市东城区东皇城根南街34-1,Beijing,Beijing,China,39.927791,116.41339
2,18,Yuantong,裕中西里15号楼圆通快递,Beijing,Beijing,China,39.975669,116.393974
2,19,Yuantong,北京市房山区窦店镇于庄村窦店二小后面,Beijing,Beijing,China,39.683318,116.071268
2,20,Yuantong,顺沙路9号,Beijing,Beijing,China,40.176369,116.507889
2,21,Yuantong,立水桥东一路与立水桥东二路交叉口西150米,Beijing,Beijing,China,40.068208,116.426299
2,22,Yuantong,北京市东城区忠实里5号院,Beijing,Beijing,China,39.908495,116.452316
2,23,Yuantong,北京市顺义区周家园南开巷22号附近,Beijing,Beijing,China,40.154377,116.829101
2,24,Yuantong,环镇东路1排1号附近,Beijing,Beijing,China,40.163219,116.838743
2,25,Yuantong,旧京银路东100米,Beijing,Beijing,China,40.459553,116.016031
2,26,Yuantong,怀柔镇南华园三区130号,Beijing,Beijing,China,40.31296,116.63976
2,27,Yuantong,北京市怀柔区礼贤街,Beijing,Beijing,China,40.32881,116.64754
2,28,Yuantong,北京市怀柔区X212(富密路),Beijing,Beijing,China,40.291618,116.62298
2,29,Yuantong,九渡河村20号新中学路口向北200米,Beijing,Beijing,China,40.369567,116.389533
2,30,Yuantong,顺义区西辛南区84号楼,Beijing,Beijing,China,40.137761,116.648229
2,31,Yuantong,沟流路东50米,Beijing,Beijing,China,40.177544,116.47072
2,32,Yuantong,小汤山镇双兴苑东区1号楼底商,Beijing,Beijing,China,40.17998,116.390193
2,33,Yuantong,北京市昌平区羊各庄新村26号,Beijing,Beijing,China,40.121847,116.453164
2,34,Yuantong,沙河镇南丰路站兆丰家园东区10号楼底商,Beijing,Beijing,China,40.157079,116.290275
2,35,Yuantong,沙窝北路558号附近,Beijing,Beijing,China,39.996982,116.639797
2,36,Yuantong,北马坊700号东盏旧货后边,Beijing,Beijing,China,39.995115,116.578082
2,37,Yuantong,亮马桥路32号高斓大厦16层圆通快递,Beijing,Beijing,China,39.958953,116.482861
2,38,Yuantong,花家地南街法制日报社市政大院附近,Beijing,Beijing,China,39.981054,116.475271
2,39,Yuantong,北京市朝阳区高碑店御河大厦b座圆通快递,Beijing,Beijing,China,39.907302,116.531559
2,40,Yuantong,左家庄西街柳芳南里13号楼,Beijing,Beijing,China,39.959229,116.444157
2,41,Yuantong,北京市朝阳区雅宝路甲5号1060室北50米,Beijing,Beijing,China,39.922922,116.444512
2,42,Yuantong,西单北大街132号华威大厦,Beijing,Beijing,China,39.917601,116.381018
2,43,Yuantong,北京市通州区九棵树东路辅路,Beijing,Beijing,China,39.884005,116.683564
2,44,Yuantong,北京市通州区S202(张采路),Beijing,Beijing,China,39.766547,116.697243
2,45,Yuantong,史村东街与t马路交叉口西100米,Beijing,Beijing,China,39.746495,116.599319
2,46,Yuantong,垡头翠城盛园社区垡头翠成馨园127号楼,Beijing,Beijing,China,39.862277,116.519548
2,47,Yuantong,小红门镇红坊路牌坊路三精棚业附近,Beijing,Beijing,China,39.820947,116.478452
2,48,Yuantong,上地三街9号嘉华大厦D座,Beijing,Beijing,China,40.042794,116.314383
2,49,Yuantong,北京市海淀区中关村南大街17号院一号楼,Beijing,Beijing,China,39.959792,116.329205
2,50,Yuantong,北京市海淀区罗庄南路,Beijing,Beijing,China,39.977428,116.351696
2,51,Yuantong,滨河里28号楼609楼下,Beijing,Beijing,China,39.885247,116.358376
2,52,Yuantong,丰桥路8号院甲15号楼,Beijing,Beijing,China,39.854376,116.313362
2,53,Yuantong,北京市丰台区程庄路3号院2号楼附近,Beijing,Beijing,China,39.866598,116.271514
2,54,Yuantong,月华大街附近,Beijing,Beijing,China,39.741263,116.138409
2,55,Yuantong,北京市顺义区Y361(良小路),Beijing,Beijing,China,40.154881,116.950801
2,56,Yuantong,庙城镇富密路金善名居1号楼底商,Beijing,Beijing,China,40.297492,116.62687
2,57,Yuantong,北京市昌平区龙锦三街42附近,Beijing,Beijing,China,40.090169,116.375751
2,58,Yuantong,北京市昌平区史各庄门诊斜对面,Beijing,Beijing,China,40.108763,116.295601
2,59,Yuantong,北京市昌平区回龙观街道定福皇庄500号,Beijing,Beijing,China,40.115145,116.28514
2,60,Yuantong,北京市海淀区东马坊路,Beijing,Beijing,China,40.104783,116.219964
2,61,Yuantong,北京市朝阳区双柳北街一号院18号楼,Beijing,Beijing,China,39.912136,116.59259
2,62,Yuantong,北京市朝阳区酒仙桥街道酒仙桥北路北窑地九号楼,Beijing,Beijing,China,39.996007,116.508833
2,63,Yuantong,北京市朝阳区酒仙桥街道三街坊1号楼圆通快递,Beijing,Beijing,China,39.970071,116.505762
2,64,Yuantong,北京市市朝阳区八里庄街道慈云寺北里远洋国际中心f座收发室,Beijing,Beijing,China,39.922171,116.499559
2,65,Yuantong,北京市朝阳区建国路89号华贸公寓15号楼,Beijing,Beijing,China,39.917729,116.488208
2,66,Yuantong,志强北园16号楼圆通速递,Beijing,Beijing,China,39.958914,116.37171
2,67,Yuantong,北京市海淀区学院南路乙12号4号楼1单元303,Beijing,Beijing,China,39.963446,116.368113
2,68,Yuantong,北京市东城区东华门街道灯市口大街50号好润大厦,Beijing,Beijing,China,39.924698,116.421814
2,69,Yuantong,金海湾花园中街,Beijing,Beijing,China,39.901683,116.510053
2,70,Yuantong,北京市朝阳区南四环东路6号附近,Beijing,Beijing,China,39.843544,116.480166
2,71,Yuantong,北京市海淀区广源闸路与紫竹院路交叉路口向北约200米(广源大厦),Beijing,Beijing,China,39.949227,116.317983
2,72,Yuantong,北京市西城区天宁寺西里7号楼圆通妈妈驿站,Beijing,Beijing,China,39.899125,116.349672
2,73,Yuantong,北京市丰台区五里店南路,Beijing,Beijing,China,39.861229,116.265479
2,74,Yuantong,北京市房山区中国铁建原香漫谷北区东,Beijing,Beijing,China,39.721303,116.018205
2,75,Yuantong,京周路与周张路交叉口西南150米,Beijing,Beijing,China,39.686363,115.948384
2,76,Yuantong,北京市平谷区平关路,Beijing,Beijing,China,40.285087,117.081244
2,77,Yuantong,北京市平谷区滨河街道海关大街53号海关西园14号楼,Beijing,Beijing,China,40.142713,117.096629
2,78,Yuantong,北京市顺义区南彩前俸伯顺平辅线北京贾维兰旅店,Beijing,Beijing,China,40.139669,116.722016
2,79,Yuantong,北京市怀柔区G111(京加路),Beijing,Beijing,China,40.370729,116.671991
2,80,Yuantong,北京市顺义区工业路临9号,Beijing,Beijing,China,40.085839,116.671473
2,81,Yuantong,北京市顺义区南园大街29号西南80米,Beijing,Beijing,China,40.15539,116.624318
2,82,Yuantong,北京市顺义区西海洪村物良美购物中心圆通快递,Beijing,Beijing,China,40.15193,116.625127
2,83,Yuantong,北京市顺义区中心街13号附近,Beijing,Beijing,China,40.104576,116.501915
2,84,Yuantong,北京市昌平区沙河镇北街家园六区21号楼,Beijing,Beijing,China,40.166921,116.264835
2,85,Yuantong,北京市延庆区百莲路28-10号,Beijing,Beijing,China,40.452535,115.983754
2,86,Yuantong,北京市顺义区李桥镇李家桥村南五条3号,Beijing,Beijing,China,40.048479,116.674527
2,87,Yuantong,北京市朝阳区金盏北京小店村福兰德超市旁,Beijing,Beijing,China,40.014901,116.576223
2,88,Yuantong,望花路西里社区望花路西里23号楼,Beijing,Beijing,China,39.995077,116.47679
2,89,Yuantong,驼房营南路东50米,Beijing,Beijing,China,39.972836,116.509865
2,90,Yuantong,麦子店街枣营北里22号楼1单元102室,Beijing,Beijing,China,39.952518,116.475982
2,91,Yuantong,呼家楼街道金汇路中骏世界城b座圆通快递,Beijing,Beijing,China,39.923042,116.459188
2,92,Yuantong,三环以内东三环中路5号财富金融中心b1收发室圆通快递,Beijing,Beijing,China,39.922866,116.465141
2,93,Yuantong,芍药居九号院6号楼,Beijing,Beijing,China,39.986356,116.442166
2,94,Yuantong,安华里五区13号楼,Beijing,Beijing,China,39.97118,116.409692
2,95,Yuantong,北京市通州区亦庄镇永昌南路兴业街2号如家快捷酒店,Beijing,Beijing,China,39.773278,116.546094
2,96,Yuantong,北京市朝阳区劲松街道百环家园2号楼,Beijing,Beijing,China,39.898413,116.464998
2,97,Yuantong,宋庄路嘉业大厦2期1号楼圆通速递,Beijing,Beijing,China,39.862232,116.433629
2,98,Yuantong,北京市丰台区海户路,Beijing,Beijing,China,39.859992,116.402701
2,99,Yuantong,北京市西城区禄长街37号附近,Beijing,Beijing,China,39.887427,116.397977
2,100,Yuantong,北京市海淀区上地东路与后厂村路交叉路口向西南约200米(盈创动力),Beijing,Beijing,China,40.061386,116.309265
2,101,Yuantong,北京市海淀区东升双清路3号东升八家郊野公园内,Beijing,Beijing,China,40.025156,116.353364
2,102,Yuantong,北太平庄街道三环以内学院南路38号智慧大厦蜂巢快递柜圆通快递,Beijing,Beijing,China,39.965487,116.362894
2,103,Yuantong,北京市海淀区北太平庄今典花园1号楼,Beijing,Beijing,China,39.958569,116.366819
2,104,Yuantong,北京市海淀区常青路,Beijing,Beijing,China,39.966539,116.276521
2,105,Yuantong,北京市海淀区复兴路十二号附近,Beijing,Beijing,China,39.912541,116.261599
2,106,Yuantong,鲁谷大街永乐西小区1号楼底商,Beijing,Beijing,China,39.908832,116.23513
2,107,Yuantong,北京市丰台区南三环西路65号古文化广场b座圆通速递,Beijing,Beijing,China,39.858898,116.35542
2,108,Yuantong,丰桥路8号院甲15号楼,Beijing,Beijing,China,39.857928,116.315575
2,109,Yuantong,北京市房山区良乡肖庄,Beijing,Beijing,China,39.729849,116.070186
2,110,Yuantong,北京市大兴区黄村海子角海北路58号院北门圆通速递,Beijing,Beijing,China,39.72537,116.353741
2,111,Yuantong,北京市大兴区天宫院保利春天派2号楼,Beijing,Beijing,China,39.675353,116.325739
2,112,Yuantong,中关村南大街31号神周大厦一层,Beijing,Beijing,China,39.952867,116.329513
2,113,Yuantong,北京市丰台区辛庄南路,Beijing,Beijing,China,39.83823,116.162675
2,114,Yuantong,白浮泉路12-2,Beijing,Beijing,China,40.205813,116.243846
2,115,Yuantong,北京市昌平区军民路,Beijing,Beijing,China,40.247138,116.13398
2,116,Yuantong,后现代城5号楼b座102室,Beijing,Beijing,China,39.906246,116.491838
2,117,Yuantong,幸福三村四巷10号附近,Beijing,Beijing,China,39.944321,116.458515
2,118,Yuantong,潞西路东50米,Beijing,Beijing,China,39.818281,116.575933
2,119,Yuantong,毛纺路16号院-27号楼,Beijing,Beijing,China,40.033452,116.346526
2,120,Yuantong,北京市平谷区平翔东园63号楼3号底商,Beijing,Beijing,China,40.159996,117.129919
2,121,Yuantong,北京市顺义区平安街30号西60米,Beijing,Beijing,China,40.142913,116.711463
2,122,Yuantong,于辛庄村温馨家园往北5米(五金建材日用百货),Beijing,Beijing,China,40.152729,116.305411
2,123,Yuantong,香河园路香河园中里5号楼底商,Beijing,Beijing,China,39.959716,116.454271
2,124,Yuantong,北京市丰台区卢沟桥晓月苑五里1-3-603号,Beijing,Beijing,China,39.850917,116.237073
2,125,Yuantong,迎风路迎风六里二区一排一号,Beijing,Beijing,China,39.728217,115.973955
2,126,Yuantong,新中街50号檀城东区6号楼,Beijing,Beijing,China,40.375133,116.860555
2,127,Yuantong,金关北二街5号,Beijing,Beijing,China,40.168307,116.852874
2,128,Yuantong,金关北二街南5号,Beijing,Beijing,China,40.118762,116.618002
2,129,Yuantong,北京市朝阳区首都机场路北京首都国际机场2号航站楼F2,Beijing,Beijing,China,40.084412,116.600644
2,130,Yuantong,北京市朝阳区建国门外大街21国际俱乐部公寓楼3幢3层,Beijing,Beijing,China,39.916493,116.445679
2,131,Yuantong,北京市大兴区采育中街东二村8号,Beijing,Beijing,China,39.66193,116.634863
2,132,Yuantong,石楼大街38号石楼宜春亭饺子城对面,Beijing,Beijing,China,39.652487,115.986725
2,133,Yuantong,北郭新路与府前街交叉口西北100米,Beijing,Beijing,China,40.069697,116.836087
2,134,Yuantong,北京市昌平区创新路与振兴路交叉口北200米,Beijing,Beijing,China,40.190323,116.075295
2,135,Yuantong,北苑路170号凯旋城8号楼底商东易日盛整体家装设计管,Beijing,Beijing,China,40.004695,116.426239
2,136,Yuantong,梨园京洲南街14号,Beijing,Beijing,China,39.879544,116.642606
2,137,Yuantong,北京市朝阳区北京首都国际机场,Beijing,Beijing,China,40.086961,116.594178
2,138,Yuantong,北京市平谷区南埝头西路8号,Beijing,Beijing,China,40.135384,117.131241
2,139,Yuantong,北京市昌平区八仙庄南大街,Beijing,Beijing,China,40.138514,116.43571
2,140,Yuantong,北京现代汽车第三工厂南门对面,Beijing,Beijing,China,40.168092,116.850087
